$$SOE
2461302.500000000, A.D. 2026-Sep-19 00:00:00.0000, -7.083603946084163E+08, 2.557480885681223E+07, 3.782637527095255E+07,
2461309.500000000, A.D. 2026-Sep-26 00:00:00.0000, -7.082275215920721E+08, 1.844357582968494E+07, 3.960419627440011E+07,
2461316.500000000, A.D. 2026-Oct-03 00:00:00.0000, -7.079983508826239E+08, 1.130990039955214E+07, 4.137662984153901E+07,
2461323.500000000, A.D. 2026-Oct-10 00:00:00.0000, -7.076728024257089E+08, 4.174748240640551E+06, 4.314342826672570E+07,
2461330.500000000, A.D. 2026-Oct-17 00:00:00.0000, -7.072508005005792E+08, -2.960912700929563E+06, 4.490434350783072E+07,
2461337.500000000, A.D. 2026-Oct-24 00:00:00.0000, -7.067322738167852E+08, -1.009611210868746E+07, 4.665912715494101E+07,
2461344.500000000, A.D. 2026-Oct-31 00:00:00.0000, -7.061171555264368E+08, -1.722987735952974E+07, 4.840753037713878E+07,
2461351.500000000, A.D. 2026-Nov-07 00:00:00.0000, -7.054053828129930E+08, -2.436123367551377E+07, 5.014930382247774E+07,
2461358.500000000, A.D. 2026-Nov-14 00:00:00.0000, -7.045968958556343E+08, -3.148920347632789E+07, 5.188419752544992E+07,
2461365.500000000, A.D. 2026-Nov-21 00:00:00.0000, -7.036916379809629E+08, -3.861280425070070E+07, 5.361196104405681E+07,
2461372.500000000, A.D. 2026-Nov-28 00:00:00.0000, -7.026895580004407E+08, -4.573104795496984E+07, 5.533234367246789E+07,
2461379.500000000, A.D. 2026-Dec-05 00:00:00.0000, -7.015906111144007E+08, -5.284294259501129E+07, 5.704509434398310E+07,
2461386.500000000, A.D. 2026-Dec-12 00:00:00.0000, -7.003947582175674E+08, -5.994749288035592E+07, 5.874996146371779E+07,
2461393.500000000, A.D. 2026-Dec-19 00:00:00.0000, -6.991019654931587E+08, -6.704369994419116E+07, 6.044669284487140E+07,
2461400.500000000, A.D. 2026-Dec-26 00:00:00.0000, -6.977122044381977E+08, -7.413056099751949E+07, 6.213503569092539E+07,
2461407.500000000, A.D. 2027-Jan-02 00:00:00.0000, -6.962254520447696E+08, -8.120706910854453E+07, 6.381473658307362E+07,
2461414.500000000, A.D. 2027-Jan-09 00:00:00.0000, -6.946416910211293E+08, -8.827221308721608E+07, 6.548554146396865E+07,
2461421.500000000, A.D. 2027-Jan-16 00:00:00.0000, -6.929609100184860E+08, -9.532497746620826E+07, 6.714719561536871E+07,
2461428.500000000, A.D. 2027-Jan-23 00:00:00.0000, -6.911831038189002E+08, -1.023643426180345E+08, 6.879944362226596E+07,
2461435.500000000, A.D. 2027-Jan-30 00:00:00.0000, -6.893082732980663E+08, -1.093892850561483E+08, 7.044202930233833E+07,
2461442.500000000, A.D. 2027-Feb-06 00:00:00.0000, -6.873364247396784E+08, -1.163987775801046E+08, 7.207469558944392E+07,
2461449.500000000, A.D. 2027-Feb-13 00:00:00.0000, -6.852675689629742E+08, -1.233917880453344E+08, 7.369718451287596E+07,
2461456.500000000, A.D. 2027-Feb-20 00:00:00.0000, -6.831017226285912E+08, -1.303672775489780E+08, 7.530923742433338E+07,
2461463.500000000, A.D. 2027-Feb-27 00:00:00.0000, -6.808389103282682E+08, -1.373242012458605E+08, 7.691059508179647E+07,
2461470.500000000, A.D. 2027-Mar-06 00:00:00.0000, -6.784791644413784E+08, -1.442615098720004E+08, 7.850099747050354E+07,
2461477.500000000, A.D. 2027-Mar-13 00:00:00.0000, -6.760225243588997E+08, -1.511781499260531E+08, 8.008018367511821E+07,
2461484.500000000, A.D. 2027-Mar-20 00:00:00.0000, -6.734690362044361E+08, -1.580730633433766E+08, 8.164789183828710E+07,
2461491.500000000, A.D. 2027-Mar-27 00:00:00.0000, -6.708187528505536E+08, -1.649451872117113E+08, 8.320385914208131E+07,
2461498.500000000, A.D. 2027-Apr-03 00:00:00.0000, -6.680717340277492E+08, -1.717934535761665E+08, 8.474782178973040E+07,
2461505.500000000, A.D. 2027-Apr-10 00:00:00.0000, -6.652280464648832E+08, -1.786167893103876E+08, 8.627951498385698E+07,
2461512.500000000, A.D. 2027-Apr-17 00:00:00.0000, -6.622877640389966E+08, -1.854141160682068E+08, 8.779867289797060E+07,
2461519.500000000, A.D. 2027-Apr-24 00:00:00.0000, -6.592509678553089E+08, -1.921843503780004E+08, 8.930502862885235E+07,
2461526.500000000, A.D. 2027-May-01 00:00:00.0000, -6.561177459577870E+08, -1.989264038520265E+08, 9.079831410462385E+07,
2461533.500000000, A.D. 2027-May-08 00:00:00.0000, -6.528881923629203E+08, -2.056391827624445E+08, 9.227825998148780E+07,
2461540.500000000, A.D. 2027-May-15 00:00:00.0000, -6.495624069135716E+08, -2.123215860307274E+08, 9.374459574436463E+07,
2461547.500000000, A.D. 2027-May-22 00:00:00.0000, -6.461404975169777E+08, -2.189725042223911E+08, 9.519704994312547E+07,
2461554.500000000, A.D. 2027-May-29 00:00:00.0000, -6.426225814115525E+08, -2.255908210154913E+08, 9.663535013682342E+07,
2461561.500000000, A.D. 2027-Jun-05 00:00:00.0000, -6.390087845779364E+08, -2.321754140109681E+08, 9.805922272087950E+07,
2461568.500000000, A.D. 2027-Jun-12 00:00:00.0000, -6.352992413016887E+08, -2.387251544529492E+08, 9.946839285672610E+07,
2461575.500000000, A.D. 2027-Jun-19 00:00:00.0000, -6.314940942186413E+08, -2.452389067941968E+08, 1.008625844579875E+08,
2461582.500000000, A.D. 2027-Jun-26 00:00:00.0000, -6.275934945637120E+08, -2.517155283682429E+08, 1.022415201864325E+08,
2461589.500000000, A.D. 2027-Jul-03 00:00:00.0000, -6.235976024913259E+08, -2.581538691600676E+08, 1.036049214465344E+08,
2461596.500000000, A.D. 2027-Jul-10 00:00:00.0000, -6.195065874308475E+08, -2.645527716666970E+08, 1.049525083762656E+08,
2461603.500000000, A.D. 2027-Jul-17 00:00:00.0000, -6.153206284408630E+08, -2.709110708866875E+08, 1.062839998279185E+08,
2461610.500000000, A.D. 2027-Jul-24 00:00:00.0000, -6.110399144060659E+08, -2.772275945014232E+08, 1.075991133197667E+08,
2461617.500000000, A.D. 2027-Jul-31 00:00:00.0000, -6.066646436654830E+08, -2.835011630128314E+08, 1.088975649403525E+08,
2461624.500000000, A.D. 2027-Aug-07 00:00:00.0000, -6.021950232728564E+08, -2.897305886859093E+08, 1.101790693181403E+08,
2461631.500000000, A.D. 2027-Aug-14 00:00:00.0000, -5.976312701903441E+08, -2.959146735496269E+08, 1.114433398470113E+08,
2461638.500000000, A.D. 2027-Aug-21 00:00:00.0000, -5.929736137977033E+08, -3.020522098208582E+08, 1.126900888361039E+08,
2461645.500000000, A.D. 2027-Aug-28 00:00:00.0000, -5.882222962865498E+08, -3.081419815483923E+08, 1.139190273678183E+08,
2461652.500000000, A.D. 2027-Sep-04 00:00:00.0000, -5.833775721211411E+08, -3.141827649746007E+08, 1.151298651767873E+08,
2461659.500000000, A.D. 2027-Sep-11 00:00:00.0000, -5.784397079609855E+08, -3.201733282760221E+08, 1.163223106235444E+08,
2461666.500000000, A.D. 2027-Sep-18 00:00:00.0000, -5.734089829121480E+08, -3.261124313330760E+08, 1.174960706973059E+08,
2461673.500000000, A.D. 2027-Sep-25 00:00:00.0000, -5.682856888785161E+08, -3.319988256064573E+08, 1.186508510202949E+08,
2461680.500000000, A.D. 2027-Oct-02 00:00:00.0000, -5.630701309380358E+08, -3.378312540924546E+08, 1.197863558487277E+08,
2461687.500000000, A.D. 2027-Oct-09 00:00:00.0000, -5.577626277213953E+08, -3.436084513615147E+08, 1.209022880677832E+08,
2461694.500000000, A.D. 2027-Oct-16 00:00:00.0000, -5.523635117299200E+08, -3.493291437348972E+08, 1.219983491700801E+08,
2461701.500000000, A.D. 2027-Oct-23 00:00:00.0000, -5.468731293328654E+08, -3.549920496052193E+08, 1.230742391932666E+08,
2461708.500000000, A.D. 2027-Oct-30 00:00:00.0000, -5.412918400695900E+08, -3.605958792906950E+08, 1.241296566322317E+08,
2461715.500000000, A.D. 2027-Nov-06 00:00:00.0000, -5.356200164202511E+08, -3.661393332950096E+08, 1.251642985248668E+08,
2461722.500000000, A.D. 2027-Nov-13 00:00:00.0000, -5.298580460306506E+08, -3.716211010492736E+08, 1.261778607238481E+08,
2461729.500000000, A.D. 2027-Nov-20 00:00:00.0000, -5.240063334899204E+08, -3.770398623223623E+08, 1.271700379098712E+08,
2461736.500000000, A.D. 2027-Nov-27 00:00:00.0000, -5.180653000440658E+08, -3.823942883353315E+08, 1.281405234405090E+08,
2461743.500000000, A.D. 2027-Dec-04 00:00:00.0000, -5.120353832690853E+08, -3.876830416658857E+08, 1.290890092950820E+08,
2461750.500000000, A.D. 2027-Dec-11 00:00:00.0000, -5.059170372541682E+08, -3.929047759069813E+08, 1.300151860873058E+08,
2461757.500000000, A.D. 2027-Dec-18 00:00:00.0000, -4.997107330200217E+08, -3.980581354190298E+08, 1.309187430929121E+08,
2461764.500000000, A.D. 2027-Dec-25 00:00:00.0000, -4.934169590205262E+08, -4.031417551783121E+08, 1.317993682783368E+08,
2461771.500000000, A.D. 2028-Jan-01 00:00:00.0000, -4.870362216865618E+08, -4.081542607074531E+08, 1.326567483281291E+08,
$$EOE